start=new Date('2022-12-08T00:00:00.000Z').valueOf();
sats=[{"OBJECT_NAME":"STARLINK-1657","DECAY_DATE":null,"SEMIMAJOR_AXIS":"6925.379","FILE":"3684212","TLE_LINE2":"2 46354  53.0562 309.9038 0002177  51.1550 308.9633 15.06390104125246","ELEMENT_SET_NO":"999","RA_OF_ASC_NODE":"309.9038","TIME_SYSTEM":"UTC","COUNTRY_CODE":"US","NORAD_CAT_ID":"46354","APOAPSIS":"548.752","MEAN_MOTION":"15.06390104","BSTAR":"-0.00002650500000","REV_AT_EPOCH":"12524","PERIAPSIS":"545.736","MEAN_ELEMENT_THEORY":"SGP4","EPOCH":"2022-12-07T15:46:56.961408","MEAN_MOTION_DOT":"-0.00000676","PERIOD":"95.593","EPHEMERIS_TYPE":"0","GP_ID":"219737656","ECCENTRICITY":"0.00021770","CLASSIFICATION_TYPE":"U","OBJECT_ID":"2020-062AF","MEAN_MOTION_DDOT":"0.0000000000000","RCS_SIZE":"LARGE","SITE":"AFETR","REF_FRAME":"TEME","LAUNCH_DATE":"2020-09-03","CENTER_NAME":"EARTH","TLE_LINE1":"1 46354U 20062AF  22341.65760372 -.00000676  00000-0 -26505-4 0  9993","INCLINATION":"53.0562","MEAN_ANOMALY":"308.9633","ARG_OF_PERICENTER":"51.1550","OBJECT_TYPE":"PAYLOAD"},{"OBJECT_ID":"2020-062AG","MEAN_MOTION_DDOT":"0.0000000000000","ECCENTRICITY":"0.00015610","CLASSIFICATION_TYPE":"U","SITE":"AFETR","RCS_SIZE":"LARGE","LAUNCH_DATE":"2020-09-03","CENTER_NAME":"EARTH","REF_FRAME":"TEME","TLE_LINE1":"1 46355U 20062AG  22341.63179695 -.00000581  00000-0 -20138-4 0  9995","INCLINATION":"53.0552","OBJECT_TYPE":"PAYLOAD","MEAN_ANOMALY":"295.3515","ARG_OF_PERICENTER":"64.7636","SEMIMAJOR_AXIS":"6925.356","DECAY_DATE":null,"OBJECT_NAME":"STARLINK-1661","TLE_LINE2":"2 46355  53.0552 310.0267 0001561  64.7636 295.3515 15.06397707125248","RA_OF_ASC_NODE":"310.0267","ELEMENT_SET_NO":"999","FILE":"3684212","TIME_SYSTEM":"UTC","COUNTRY_CODE":"US","MEAN_MOTION":"15.06397707","NORAD_CAT_ID":"46355","APOAPSIS":"548.302","REV_AT_EPOCH":"12524","PERIAPSIS":"546.140","BSTAR":"-0.00002013800000","EPOCH":"2022-12-07T15:09:47.256480","MEAN_MOTION_DOT":"-0.00000581","MEAN_ELEMENT_THEORY":"SGP4","PERIOD":"95.592","EPHEMERIS_TYPE":"0","GP_ID":"219738907"},{"SEMIMAJOR_AXIS":"6925.328","OBJECT_NAME":"STARLINK-1665","DECAY_DATE":null,"ELEMENT_SET_NO":"999","RA_OF_ASC_NODE":"309.9735","TLE_LINE2":"2 46356  53.0562 309.9735 0001737  76.1270 283.9912 15.06406598125246","FILE":"3684212","COUNTRY_CODE":"US","TIME_SYSTEM":"UTC","MEAN_MOTION":"15.06406598","APOAPSIS":"548.396","NORAD_CAT_ID":"46356","PERIAPSIS":"545.990","REV_AT_EPOCH":"12524","BSTAR":"0.00006410100000","MEAN_MOTION_DOT":"0.00000673","EPOCH":"2022-12-07T15:24:21.068928","MEAN_ELEMENT_THEORY":"SGP4","PERIOD":"95.592","GP_ID":"219739156","EPHEMERIS_TYPE":"0","MEAN_MOTION_DDOT":"0.0000000000000","OBJECT_ID":"2020-062AH","CLASSIFICATION_TYPE":"U","ECCENTRICITY":"0.00017370","SITE":"AFETR","RCS_SIZE":"LARGE","CENTER_NAME":"EARTH","LAUNCH_DATE":"2020-09-03","REF_FRAME":"TEME","TLE_LINE1":"1 46356U 20062AH  22341.64191052  .00000673  00000-0  64101-4 0  9996","INCLINATION":"53.0562","OBJECT_TYPE":"PAYLOAD","ARG_OF_PERICENTER":"76.1270","MEAN_ANOMALY":"283.9912"},{"INCLINATION":"53.0529","OBJECT_TYPE":"PAYLOAD","MEAN_ANOMALY":"244.6656","ARG_OF_PERICENTER":"115.4476","MEAN_MOTION_DDOT":"0.0000000000000","OBJECT_ID":"2020-062AJ","ECCENTRICITY":"0.00013740","CLASSIFICATION_TYPE":"U","SITE":"AFETR","RCS_SIZE":"LARGE","LAUNCH_DATE":"2020-09-03","CENTER_NAME":"EARTH","REF_FRAME":"TEME","TLE_LINE1":"1 46357U 20062AJ  22341.57468121  .00012755  00000-0  87392-3 0  9993","REV_AT_EPOCH":"12551","PERIAPSIS":"546.296","BSTAR":"0.00087392000000","EPOCH":"2022-12-07T13:47:32.456544","MEAN_MOTION_DOT":"0.00012755","MEAN_ELEMENT_THEORY":"SGP4","PERIOD":"95.593","EPHEMERIS_TYPE":"0","GP_ID":"219737907","SEMIMAJOR_AXIS":"6925.383","DECAY_DATE":null,"OBJECT_NAME":"STARLINK-1666","TLE_LINE2":"2 46357  53.0529 290.2759 0001374 115.4476 244.6656 15.06388786125517","ELEMENT_SET_NO":"999","RA_OF_ASC_NODE":"290.2759","FILE":"3684212","TIME_SYSTEM":"UTC","COUNTRY_CODE":"US","MEAN_MOTION":"15.06388786","NORAD_CAT_ID":"46357","APOAPSIS":"548.199"},{"OBJECT_TYPE":"PAYLOAD","MEAN_ANOMALY":"303.1418","ARG_OF_PERICENTER":"56.9745","INCLINATION":"53.0574","TLE_LINE1":"1 46358U 20062AK  22341.62073863  .00000406  00000-0  46136-4 0  9997","LAUNCH_DATE":"2020-09-03","CENTER_NAME":"EARTH","REF_FRAME":"TEME","SITE":"AFETR","RCS_SIZE":"LARGE","OBJECT_ID":"2020-062AK","MEAN_MOTION_DDOT":"0.0000000000000","ECCENTRICITY":"0.00018080","CLASSIFICATION_TYPE":"U","EPHEMERIS_TYPE":"0","GP_ID":"219738156","PERIOD":"95.592","EPOCH":"2022-12-07T14:53:51.817632","MEAN_MOTION_DOT":"0.00000406","MEAN_ELEMENT_THEORY":"SGP4","REV_AT_EPOCH":"12524","PERIAPSIS":"545.966","BSTAR":"0.00004613600000","MEAN_MOTION":"15.06398424","NORAD_CAT_ID":"46358","APOAPSIS":"548.470","TIME_SYSTEM":"UTC","COUNTRY_CODE":"US","TLE_LINE2":"2 46358  53.0574 310.0774 0001808  56.9745 303.1418 15.06398424125243","RA_OF_ASC_NODE":"310.0774","ELEMENT_SET_NO":"999","FILE":"3684212","SEMIMAJOR_AXIS":"6925.353","OBJECT_NAME":"STARLINK-1690","DECAY_DATE":null},{"EPHEMERIS_TYPE":"0","GP_ID":"219738407","PERIOD":"95.592","MEAN_ELEMENT_THEORY":"SGP4","EPOCH":"2022-12-07T19:11:57.308640","MEAN_MOTION_DOT":"-0.00000517","BSTAR":"-0.00001581600000","REV_AT_EPOCH":"12589","PERIAPSIS":"546.018","NORAD_CAT_ID":"46359","APOAPSIS":"548.423","MEAN_MOTION":"15.06397774","TIME_SYSTEM":"UTC","COUNTRY_CODE":"US","FILE":"3684212","TLE_LINE2":"2 46359  53.0534 264.2700 0001736  47.8096 312.3040 15.06397774125898","RA_OF_ASC_NODE":"264.2700","ELEMENT_SET_NO":"999","OBJECT_NAME":"STARLINK-1707","DECAY_DATE":null,"SEMIMAJOR_AXIS":"6925.355","MEAN_ANOMALY":"312.3040","ARG_OF_PERICENTER":"47.8096","OBJECT_TYPE":"PAYLOAD","INCLINATION":"53.0534","TLE_LINE1":"1 46359U 20062AL  22341.79996885 -.00000517  00000-0 -15816-4 0  9990","REF_FRAME":"TEME","LAUNCH_DATE":"2020-09-03","CENTER_NAME":"EARTH","RCS_SIZE":"LARGE","SITE":"AFETR","ECCENTRICITY":"0.00017360","CLASSIFICATION_TYPE":"U","MEAN_MOTION_DDOT":"0.0000000000000","OBJECT_ID":"2020-062AL"},{"SITE":"AFETR","RCS_SIZE":"LARGE","MEAN_MOTION_DDOT":"0.0000000000000","OBJECT_ID":"2020-062AM","ECCENTRICITY":"0.00017150","CLASSIFICATION_TYPE":"U","TLE_LINE1":"1 46360U 20062AM  22341.82208034 -.00000444  00000-0 -10876-4 0  9998","LAUNCH_DATE":"2020-09-03","CENTER_NAME":"EARTH","REF_FRAME":"TEME","INCLINATION":"53.0552","OBJECT_TYPE":"PAYLOAD","MEAN_ANOMALY":"319.1591","ARG_OF_PERICENTER":"40.9526","TLE_LINE2":"2 46360  53.0552 264.1691 0001715  40.9526 319.1591 15.06401947125903","RA_OF_ASC_NODE":"264.1691","ELEMENT_SET_NO":"999","FILE":"3684212","SEMIMAJOR_AXIS":"6925.343","OBJECT_NAME":"STARLINK-1713","DECAY_DATE":null,"MEAN_MOTION":"15.06401947","NORAD_CAT_ID":"46360","APOAPSIS":"548.395","TIME_SYSTEM":"UTC","COUNTRY_CODE":"US","EPOCH":"2022-12-07T19:43:47.741376","MEAN_MOTION_DOT":"-0.00000444","MEAN_ELEMENT_THEORY":"SGP4","REV_AT_EPOCH":"12590","PERIAPSIS":"546.020","BSTAR":"-0.00001087600000","EPHEMERIS_TYPE":"0","GP_ID":"219738656","PERIOD":"95.592"},{"TLE_LINE1":"1 46361U 20062AN  22341.79165212  .00000440  00000-0  48447-4 0  9994","CENTER_NAME":"EARTH","LAUNCH_DATE":"2020-09-03","REF_FRAME":"TEME","SITE":"AFETR","RCS_SIZE":"LARGE","OBJECT_ID":"2020-062AN","MEAN_MOTION_DDOT":"0.0000000000000","CLASSIFICATION_TYPE":"U","ECCENTRICITY":"0.00015090","OBJECT_TYPE":"PAYLOAD","ARG_OF_PERICENTER":"72.5252","MEAN_ANOMALY":"287.5902","INCLINATION":"53.0558","MEAN_MOTION":"15.06399212","APOAPSIS":"548.261","NORAD_CAT_ID":"46361","COUNTRY_CODE":"US","TIME_SYSTEM":"UTC","ELEMENT_SET_NO":"999","RA_OF_ASC_NODE":"264.2825","TLE_LINE2":"2 46361  53.0558 264.2825 0001509  72.5252 287.5902 15.06399212125891","FILE":"3684212","SEMIMAJOR_AXIS":"6925.351","OBJECT_NAME":"STARLINK-1722","DECAY_DATE":null,"GP_ID":"219737408","EPHEMERIS_TYPE":"0","PERIOD":"95.592","MEAN_MOTION_DOT":"0.00000440","EPOCH":"2022-12-07T18:59:58.743168","MEAN_ELEMENT_THEORY":"SGP4","PERIAPSIS":"546.171","REV_AT_EPOCH":"12589","BSTAR":"0.00004844700000"},{"BSTAR":"-0.00002035200000","PERIAPSIS":"545.951","REV_AT_EPOCH":"12589","MEAN_ELEMENT_THEORY":"SGP4","MEAN_MOTION_DOT":"-0.00000585","EPOCH":"2022-12-07T18:29:29.805504","PERIOD":"95.593","GP_ID":"219737657","EPHEMERIS_TYPE":"0","OBJECT_NAME":"STARLINK-1726","DECAY_DATE":null,"SEMIMAJOR_AXIS":"6925.382","FILE":"3684212","RA_OF_ASC_NODE":"264.4060","ELEMENT_SET_NO":"999","TLE_LINE2":"2 46362  53.0547 264.4060 0001871  56.1087 304.0080 15.06389110125897","COUNTRY_CODE":"US","TIME_SYSTEM":"UTC","APOAPSIS":"548.543","NORAD_CAT_ID":"46362","MEAN_MOTION":"15.06389110","INCLINATION":"53.0547","ARG_OF_PERICENTER":"56.1087","MEAN_ANOMALY":"304.0080","OBJECT_TYPE":"PAYLOAD","CLASSIFICATION_TYPE":"U","ECCENTRICITY":"0.00018710","MEAN_MOTION_DDOT":"0.0000000000000","OBJECT_ID":"2020-062AP","RCS_SIZE":"LARGE","SITE":"AFETR","REF_FRAME":"TEME","CENTER_NAME":"EARTH","LAUNCH_DATE":"2020-09-03","TLE_LINE1":"1 46362U 20062AP  22341.77048386 -.00000585  00000-0 -20352-4 0  9992"},{"MEAN_ELEMENT_THEORY":"SGP4","EPOCH":"2022-12-07T11:55:22.399392","MEAN_MOTION_DOT":"-0.00001181","BSTAR":"-0.00006039300000","REV_AT_EPOCH":"12585","PERIAPSIS":"546.165","EPHEMERIS_TYPE":"0","GP_ID":"219738908","PERIOD":"95.593","FILE":"3684212","TLE_LINE2":"2 46363  53.0557 265.6074 0001570  70.9338 289.1821 15.06387306125853","RA_OF_ASC_NODE":"265.6074","ELEMENT_SET_NO":"999","OBJECT_NAME":"STARLINK-1739","DECAY_DATE":null,"SEMIMAJOR_AXIS":"6925.387","NORAD_CAT_ID":"46363","APOAPSIS":"548.340","MEAN_MOTION":"15.06387306","TIME_SYSTEM":"UTC","COUNTRY_CODE":"US","INCLINATION":"53.0557","MEAN_ANOMALY":"289.1821","ARG_OF_PERICENTER":"70.9338","OBJECT_TYPE":"PAYLOAD","RCS_SIZE":"LARGE","SITE":"AFETR","ECCENTRICITY":"0.00015700","CLASSIFICATION_TYPE":"U","OBJECT_ID":"2020-062AQ","MEAN_MOTION_DDOT":"0.0000000000000","TLE_LINE1":"1 46363U 20062AQ  22341.49678703 -.00001181  00000-0 -60393-4 0  9996","REF_FRAME":"TEME","LAUNCH_DATE":"2020-09-03","CENTER_NAME":"EARTH"}];
